<?xml version="1.0" encoding="UTF-8"?>
<kml xmlns="http://www.opengis.net/kml/2.2" xmlns:gx="http://www.google.com/kml/ext/2.2" xmlns:kml="http://www.opengis.net/kml/2.2" xmlns:atom="http://www.w3.org/2005/Atom">
<Document>
	<name>ALATA KORUMA ALANI</name>
	<visibility>0</visibility>
	<LookAt>
		<longitude>34.34939153454133</longitude>
		<latitude>36.63223817097922</latitude>
		<altitude>0</altitude>
		<heading>0</heading>
		<tilt>45</tilt>
		<range>862.907665406567</range>
	</LookAt>
	<Style id="KESIN_KORUMA_B_LGESI">
		<BalloonStyle>
			<text><![CDATA[<b>$[name]<b/><br />$[description]]]></text>
			<bgColor>ffe1ffff</bgColor>
		</BalloonStyle>
		<LineStyle>
			<color>ff0000ff</color>
			<width>2</width>
		</LineStyle>
		<PolyStyle>
			<color>4d0000ff</color>
		</PolyStyle>
	</Style>
	<Style id="KESIN_KORUMA_B_LGESI0">
		<BalloonStyle>
			<text><![CDATA[<b>$[name]<b/><br />$[description]]]></text>
			<bgColor>ffe1ffff</bgColor>
		</BalloonStyle>
		<LineStyle>
			<color>ff0000ff</color>
			<width>2</width>
		</LineStyle>
		<PolyStyle>
			<color>4d0000ff</color>
		</PolyStyle>
	</Style>
	<StyleMap id="KESIN_KORUMA_B_LGESI1">
		<Pair>
			<key>normal</key>
			<styleUrl>#KESIN_KORUMA_B_LGESI</styleUrl>
		</Pair>
		<Pair>
			<key>highlight</key>
			<styleUrl>#KESIN_KORUMA_B_LGESI0</styleUrl>
		</Pair>
	</StyleMap>
	<Style id="NITELIKLI_KORUMA_B_L">
		<BalloonStyle>
			<text><![CDATA[<b>$[name]<b/><br />$[description]]]></text>
			<bgColor>ffe1ffff</bgColor>
		</BalloonStyle>
		<LineStyle>
			<color>ffff0000</color>
			<width>2</width>
		</LineStyle>
		<PolyStyle>
			<color>4dff0000</color>
		</PolyStyle>
	</Style>
	<StyleMap id="NITELIKLI_KORUMA_B_L0">
		<Pair>
			<key>normal</key>
			<styleUrl>#NITELIKLI_KORUMA_B_L</styleUrl>
		</Pair>
		<Pair>
			<key>highlight</key>
			<styleUrl>#NITELIKLI_KORUMA_B_L1</styleUrl>
		</Pair>
	</StyleMap>
	<Style id="NITELIKLI_KORUMA_B_L1">
		<BalloonStyle>
			<text><![CDATA[<b>$[name]<b/><br />$[description]]]></text>
			<bgColor>ffe1ffff</bgColor>
		</BalloonStyle>
		<LineStyle>
			<color>ffff0000</color>
			<width>2</width>
		</LineStyle>
		<PolyStyle>
			<color>4dff0000</color>
		</PolyStyle>
	</Style>
	<Folder>
		<name>NITELIKLI_KORUMA_B_L</name>
		<visibility>0</visibility>
		<LookAt>
			<longitude>34.34892296757997</longitude>
			<latitude>36.63239044928632</latitude>
			<altitude>0</altitude>
			<heading>0</heading>
			<tilt>45</tilt>
			<range>775.754687021788</range>
		</LookAt>
		<Placemark id="#1">
			<visibility>0</visibility>
			<LookAt>
				<longitude>34.34892296757997</longitude>
				<latitude>36.63239044928632</latitude>
				<altitude>0</altitude>
				<heading>0</heading>
				<tilt>45</tilt>
				<range>775.754687021788</range>
			</LookAt>
			<styleUrl>#NITELIKLI_KORUMA_B_L0</styleUrl>
			<Polygon>
				<outerBoundaryIs>
					<LinearRing>
						<coordinates>
							34.35239062145547,36.63263194690278,0 34.35238018623016,36.63263521727331,0 34.35236980261149,36.63263958544871,0 34.35235771651358,36.63264467037008,0 34.3523444199323,36.6326552745057,0 34.35233357561468,36.63266270880728,0 34.35230679943577,36.63268476884848,0 34.35229423325094,36.6327016630939,0 34.35228072525008,36.63271309319091,0 34.35227059474926,36.63272670065273,0 34.35226043038107,36.63274035355111,0 34.35225023216123,36.63275405278691,0 34.35224000007392,36.63276779745925,0 34.35223061130073,36.63278719211348,0 34.35221637049591,36.63280633548185,0 34.35220825281408,36.63282406316296,0 34.35219874179504,36.63284369257669,0 34.35218919083038,36.63286340353839,0 34.35218396707885,36.63289095235715,0 34.35217523031088,36.632916310928,0 34.35217171418222,36.63293480003284,0 34.3521594092736,36.63295807710752,0 34.35214969771891,36.63297794036567,0 34.35214346647592,36.63300016994937,0 34.35213187839525,36.63302960123125,0 34.35212204748976,36.63304973706065,0 34.35211486306316,36.63306636386046,0 34.35210283367459,36.63308244103932,0 34.35208876178997,36.63310831338995,0 34.35207333045004,36.63313604383521,0 34.35205696770541,36.63315794598365,0 34.35205044104298,36.6331809303988,0 34.35203670504799,36.6331993462675,0 34.35202374895478,36.63322387868603,0 34.35201636549589,36.63324031401089,0 34.35200896840021,36.6332567368752,0 34.35199515566688,36.6332745372853,0 34.35197851874909,36.63329597938995,0 34.35196266955211,36.63332334602968,0 34.35194954775025,36.63334722705248,0 34.35194199039282,36.63336394908099,0 34.35192793008985,36.63338210731035,0 34.35192117177152,36.63340482583135,0 34.35191354221827,36.63342170365958,0 34.35189936441995,36.63344004883721,0 34.3518888338417,36.63346071430066,0 34.35187826646516,36.63348144956233,0 34.3518676634238,36.63350225551042,0 34.35185989769894,36.63351940339617,0 34.3518492309332,36.63354033801618,0 34.35183558870141,36.63356540712218,0 34.35182751120208,36.63358416423178,0 34.35181643430528,36.63360715791858,0 34.35180828902063,36.63362606717402,0 34.35180089961723,36.63365144646938,0 34.35179269445099,36.63367051228653,0 34.35178524146519,36.63369609233752,0 34.35177395072506,36.6337195822274,0 34.35176945542474,36.63374109827632,0 34.35175808318395,36.63376478732253,0 34.35174743199294,36.63379512881757,0 34.35174208567555,36.63381036152242,0 34.35173365118647,36.63382999760491,0 34.35171978259628,36.63386508994834,0 34.35171822824074,36.6338827359132,0 34.35170812386701,36.63392038149534,0 34.35169642566964,36.63394486986947,0 34.35169170228512,36.63396721927988,0 34.35167601103592,36.63398968863242,0 34.35167123142157,36.63401221168334,0 34.35165934718595,36.63403712386043,0 34.35165451815953,36.63405982678206,0 34.35164591765477,36.63407937013046,0 34.35163733221366,36.63409875201764,0 34.35162871987787,36.63411819458033,0 34.35161377681185,36.63414631228687,0 34.35159797192225,36.63416791159391,0 34.35158606858263,36.63419192472291,0 34.35158049230311,36.63420730870398,0 34.35156133682806,36.63423352430409,0 34.35155891788165,36.63424462306592,0 34.35154686111017,36.6342689424898,0 34.35153475571411,36.63429335887747,0 34.35152260172487,36.63431787403067,0 34.35151039911088,36.6343424861476,0 34.35149816133345,36.63436713380352,0 34.35148189880559,36.63438922846338,0 34.35147362980418,36.63441629819184,0 34.35145725421804,36.63443857794711,0 34.3514489059476,36.63446584680613,0 34.35143647163265,36.63449076610202,0 34.35142398760609,36.634515784176,0 34.35141128395396,36.63454167065827,0 34.35140596540784,36.63456547751371,0 34.35139724108559,36.63459413376113,0 34.35139109845442,36.63461121364422,0 34.35138215099226,36.6346407933045,0 34.35137594089004,36.63465810732654,0 34.35136692456751,36.63468790582308,0 34.35135374024401,36.6347153358601,0 34.3513404922266,36.6347428963707,0 34.35132718275077,36.6347705873295,0 34.35131731998735,36.63479334012874,0 34.351307418472,36.63481617896736,0 34.35129748045597,36.63483910472086,0 34.35129522636944,36.63485951856082,0 34.35124175927295,36.63493700253532,0 34.35122376061359,36.63496308692025,0 34.35120929709852,36.63498404652628,0 34.3511913678097,36.63500943089742,0 34.35117701391165,36.63502962605889,0 34.35116685696185,36.6350525029242,0 34.3511577901812,36.63506526925116,0 34.35114878775944,36.63507794384046,0 34.3511342748066,36.63509837958156,0 34.35111178181634,36.63512140356671,0 34.35109223878834,36.63513159273941,0 34.35106774144645,36.63513139121625,0 34.35103949160276,36.63513635386794,0 34.35101487359862,36.63513615730663,0 34.35098589391209,36.63513332144434,0 34.35096059813922,36.63512529874797,0 34.35092663460445,36.63511197969948,0 34.35089748214207,36.63510910883149,0 34.35085579891737,36.6351061169436,0 34.35083846427948,36.63509551071196,0 34.35081297342241,36.63508739107954,0 34.35078384578429,36.63508369993802,0 34.35075466325029,36.63508000220332,0 34.35071633117935,36.63506287879748,0 34.35069953417008,36.63505962810482,0 34.35063996643811,36.63503642992615,0 34.35060106912544,36.63501138897456,0 34.35055823402408,36.63499140164323,0 34.35053660309737,36.63497747771674,0 34.35050631301179,36.63495797888351,0 34.35046386269688,36.63494549388172,0 34.35043796039965,36.63492852862615,0 34.35041637273343,36.63491439063581,0 34.3503904637029,36.63489742274279,0 34.35036455353442,36.63488045305473,0 34.35035591531322,36.63487479590705,0 34.35032568154106,36.63485499543452,0 34.35029976348189,36.63483802041507,0 34.35028248365901,36.63482670344455,0 34.35025655998251,36.63480972577594,0 34.35024791837644,36.6348040659554,0 34.35022596663453,36.63478232260868,0 34.35021300817759,36.6347738346315,0 34.35017844632369,36.63475119888485,0 34.3501525215616,36.63473422030419,0 34.35012660860367,36.63471721275004,0 34.3501009896396,36.63469962518008,0 34.35008391296584,36.63468790130182,0 34.35005830305783,36.63467031902611,0 34.350032696562,36.63465273940924,0 34.35001562782777,36.63464102083729,0 34.3499942942,36.63462637529604,0 34.34998124615704,36.63461005810053,0 34.3499599640751,36.63459535430096,0 34.34993884051669,36.63458038018536,0 34.34990927886178,36.63455942403775,0 34.34988805751917,36.63453679291549,0 34.34986696346208,36.63452184187993,0 34.34985852764888,36.63451586252541,0 34.34982901248306,36.63449494097178,0 34.3497995086683,36.63447402829259,0 34.34978272232541,36.63446971319649,0 34.34976586542881,36.63445776421932,0 34.34973637631798,36.63443685946701,0 34.34971110855019,36.6344189488564,0 34.34968164212341,36.63439806095324,0 34.34965639475267,36.63438016451654,0 34.3496311612598,36.63436985754245,0 34.34960171522917,36.6343489829038,0 34.34958489459615,36.6343370587191,0 34.34957226164798,36.63433568715593,0 34.34954276338439,36.63432995720369,0 34.34951752389217,36.63431206064759,0 34.34949229344827,36.63429416938983,0 34.34946707208406,36.6342762852322,0 34.34944606072052,36.63426138724688,0 34.34942452512374,36.6342472007258,0 34.34940282116455,36.6342332323622,0 34.34937677302328,36.6342164676557,0 34.34935528873092,36.63418746261396,0 34.34933383764075,36.63415850134391,0 34.3493078166338,36.63414175163243,0 34.34928612963353,36.63412779116426,0 34.34926009959479,36.63411103523696,0 34.34923840357501,36.63409706945567,0 34.34922572037686,36.63407377023496,0 34.34920421442393,36.63405236584857,0 34.34918687162449,36.6340412008058,0 34.34916519029448,36.63402724205282,0 34.34915465548288,36.63402045924616,0 34.34914350443826,36.63401327974282,0 34.34913090662535,36.633990066046,0 34.34910923322284,36.63397611169803,0 34.34908464939191,36.63396028366351,0 34.34905262408922,36.63394721424022,0 34.34903526773301,36.63393603851556,0 34.3490179080127,36.63392486192535,0 34.34898752370856,36.63390529978678,0 34.34896147340587,36.63388852780271,0 34.34894410463878,36.63387734409541,0 34.34891804531824,36.63386056679732,0 34.34889632562648,36.63384658229771,0 34.34888360316899,36.63383083526499,0 34.34886654908342,36.63381230434552,0 34.34884950641956,36.63379378681003,0 34.34883214220812,36.63378260573749,0 34.34881511659292,36.63376410332184,0 34.34879341498852,36.63375012760865,0 34.34876772716324,36.63372605199118,0 34.34875065752104,36.63370765188414,0 34.34873774847807,36.6336922295269,0 34.34871156351662,36.63366868664525,0 34.34868055341718,36.63364970818921,0 34.34864287256224,36.63362664685356,0 34.34862376960293,36.63359992413033,0 34.34861047097039,36.63359178222751,0 34.34859405468195,36.63355922625854,0 34.3485812105711,36.63354386982683,0 34.34855065832706,36.63351767136623,0 34.34852407340409,36.63350138740238,0 34.34850190933167,36.63348781153366,0 34.34847973621475,36.63347422945567,0 34.34845805051516,36.63345345950773,0 34.34845411379857,36.63344356718051,0 34.34843738651547,36.63341837276375,0 34.34840687295544,36.63339220716617,0 34.34836696323155,36.63336774729422,0 34.34834033981296,36.63335143038462,0 34.34832757522539,36.63333614150473,0 34.34830594413836,36.63331542136913,0 34.34829319554223,36.63330015122659,0 34.34828045491696,36.63328488910195,0 34.34826270704567,36.63327400693246,0 34.3482277886856,36.63324514741221,0 34.34820558942772,36.63323153404031,0 34.3481928749012,36.63321629233487,0 34.34816240690567,36.63319016580328,0 34.34815858854655,36.63318039016483,0 34.34813765100978,36.63315269244961,0 34.34811673867578,36.63312502868549,0 34.34810471936257,36.63310284364395,0 34.34808320332167,36.63308223840078,0 34.34804821640314,36.63306015196833,0 34.34801792030926,36.63304061380573,0 34.34800560331427,36.63302527657379,0 34.34799396822368,36.63300300337401,0 34.34798167414446,36.63298769741718,0 34.34795642343007,36.63296404016923,0 34.34793048956743,36.63294731078646,0 34.34791752038903,36.63293894521725,0 34.34789732889709,36.63291119396293,0 34.34788076567768,36.63289315472664,0 34.34785484764525,36.63287643325727,0 34.34784188638982,36.63286807209521,0 34.34782176898029,36.63284039928242,0 34.34780449744782,36.6328292548509,0 34.34779229677086,36.63281404423019,0 34.34777071049357,36.6328001165778,0 34.34774911969015,36.63278618536838,0 34.34773262579935,36.63276820749937,0 34.34770240096253,36.63274870539108,0 34.3476851260672,36.6327375582766,0 34.34765138340314,36.63270845460874,0 34.34762547107074,36.63269173302344,0 34.34760038743263,36.63266822067971,0 34.34757447399119,36.63265149819446,0 34.34754077449362,36.63262242914716,0 34.34750622024532,36.63260012951139,0 34.34748893972821,36.63258897702483,0 34.34745869235309,36.63256945708665,0 34.34743366429789,36.63254598552658,0 34.34742076851127,36.63253759023758,0 34.34739780249333,36.63251324474596,0 34.34736927989257,36.63249299884524,0 34.3473463730009,36.63246870854024,0 34.34732195729794,36.63245137976562,0 34.34731691016844,36.632431765803,0 34.34729814694904,36.63241044987901,0 34.34726973094157,36.63239028654661,0 34.34724696191888,36.63236614153512,0 34.34722669051802,36.63235175829248,0 34.34720802286699,36.63233053498311,0 34.34719587341657,36.63232191587535,0 34.3471675322605,36.63230181024016,0 34.34714729713038,36.63228745360521,0 34.34712466335531,36.63226343138619,0 34.34710206148789,36.63223944304215,0 34.34707782949985,36.63222225630786,0 34.34705360879437,36.63220507484726,0 34.34703511513073,36.63218401533724,0 34.34702873594967,36.63217155912718,0 34.34700053082769,36.63215155553459,0 34.346986126224,36.63213341787371,0 34.34697576291246,36.63211815665521,0 34.3469516318204,36.63210104624468,0 34.34694129814657,36.63208581712604,0 34.34691893310212,36.6320620684531,0 34.34690061046778,36.63204119620999,0 34.34688632118629,36.63202319419364,0 34.3468720501878,36.63200521449523,0 34.34685603084274,36.63199386113546,0 34.3468417906323,36.63197591532548,0 34.34682178797289,36.6319617389201,0 34.34680978932456,36.63195323520446,0 34.34680758192084,36.63194382786094,0 34.34678141256074,36.63191745142741,0 34.34676544195393,36.63190613444749,0 34.34675745836024,36.63190047773948,0 34.34672553301773,36.63187785530517,0 34.3467095760285,36.63186654897629,0 34.34669537215235,36.63184876042268,0 34.34667905820555,36.63183756354886,0 34.34658420634668,36.63178495237333,0 34.34657156626448,36.63178346523176,0 34.34654690896177,36.6317737529835,0 34.34650621772015,36.63175306322896,0 34.34646950371465,36.63173510377337,0 34.34644878423372,36.63172810514277,0 34.34642003483042,36.63171561159075,0 34.3463429361396,36.63163404312832,0 34.34633494347528,36.63162856850791,0 34.34630697144158,36.6316094100094,0 34.34628699546273,36.63159572789223,0 34.34626623612979,36.63158868462655,0 34.34624226153932,36.63157226161044,0 34.34621747996417,36.63156246870049,0 34.34619268038565,36.63155266878026,0 34.34616786055255,36.63154286097412,0 34.34614786646455,36.63152916371965,0 34.34612387719839,36.63151273003226,0 34.34611588116162,36.63150725273169,0 34.34609102634153,36.63149742458019,0 34.34605504133746,36.63147277269051,0 34.34602306285306,36.63145086520415,0 34.34598759366984,36.63142597859598,0 34.34597109311342,36.63142139661371,0 34.34594678156429,36.63141124061491,0 34.34592245651431,36.63140107935723,0 34.34590592111265,36.63139648604569,0 34.34587672100115,36.63139007780791,0 34.34585625199555,36.63138268788565,0 34.34582698901659,36.63137626412671,0 34.34581527685914,36.63136789403286,0 34.34578597004569,36.63136145634198,0 34.34576153812404,36.63135125480954,0 34.34572332628042,36.63134576109149,0 34.34570275495795,36.63133833625592,0 34.34567931121159,36.63132156922983,0 34.34565197323439,36.63130201865894,0 34.34563138385806,36.63129458320202,0 34.34561078434745,36.63128714335065,0 34.34559516648234,36.63127597090052,0 34.34556674455216,36.63126294001204,0 34.34554723013415,36.63124897863226,0 34.34551099477451,36.63123035839823,0 34.34549035355925,36.63122289737125,0 34.34547474926266,36.63121173196016,0 34.34546304944736,36.63120336079042,0 34.34544745307689,36.63119220069246,0 34.34545207669533,36.63116633218807,0 34.34545457193548,36.63114735830795,0 34.34545780198172,36.63112216421737,0 34.34547308699997,36.63110519311601,0 34.34548911501611,36.63108202333511,0 34.34550429706545,36.6310651750359,0 34.34552820837852,36.63104756315929,0 34.34555202474439,36.63103002083093,0 34.34558048382998,36.6310090587952,0 34.34560409816106,36.63099166471032,0 34.34562762086725,36.63097433833421,0 34.34565501353004,36.63095975071508,0 34.34567764284717,36.63094865444158,0 34.34570948421837,36.6309307421042,0 34.34574185553648,36.63090685334471,0 34.34577049628926,36.63088612168551,0 34.34578007674639,36.63087921135274,0 34.34581823404967,36.63085168901056,0 34.34585140956385,36.63082776140163,0 34.34587968826819,36.63080736449579,0 34.34589846160595,36.63079382391532,0 34.34593040400178,36.63077619871751,0 34.34595365322649,36.63075941870697,0 34.34597680527001,36.63074270827051,0 34.34599986014815,36.63072606830909,0 34.34602668724337,36.6307120753879,0 34.34605340243907,36.63069814139294,0 34.34607160995143,36.63068498201987,0 34.34609428459594,36.63066859412828,0 34.34611686427979,36.63065227488498,0 34.34613935120733,36.63063602246296,0 34.3461666973098,36.63061645689389,0 34.34618062813473,36.63060661487791,0 34.34620376188658,36.63059027223718,0 34.34622602354464,36.63057977381403,0 34.34624895827857,36.63056355956205,0 34.3462619205577,36.63055960880288,0 34.34628470045491,36.63054349180629,0 34.34631641913896,36.63052105106336,0 34.34633445353498,36.6305082918757,0 34.34637032681927,36.63048291086086,0 34.34639673663331,36.63046409108645,0 34.34642290938452,36.63044539743082,0 34.34644894741973,36.63042680080446,0 34.34647054417346,36.6304113756434,0 34.34649204817233,36.63039601730425,0 34.34651346050288,36.63038072397265,0 34.34653052432274,36.63036853618543,0 34.3465475296022,36.6303563896052,0 34.34657712263897,36.63034055236389,0 34.346594610743,36.63032833454209,0 34.34661579838245,36.63031856993639,0 34.34663690506404,36.63030884318555,0 34.34665418407714,36.630296752966,0 34.3466799822029,36.6302787023411,0 34.34670446311108,36.63026629102085,0 34.3467244769708,36.63025171448557,0 34.34674441467082,36.6302371946737,0 34.34676823720213,36.63021984396084,0 34.34678800597224,36.63020544679357,0 34.34681117059539,36.6301935260922,0 34.34682686557765,36.63018208810229,0 34.34684375614174,36.63016977878408,0 34.3468658916077,36.6301536473376,0 34.34688571481836,36.63013428649737,0 34.34690544568129,36.63011501590292,0 34.3469285209626,36.63009822145154,0 34.3469476693894,36.63008428450523,0 34.34695989965788,36.63006564564979,0 34.34698215346262,36.63004918666002,0 34.34699683571549,36.63003827370305,0 34.34701147934518,36.6300273900149,0 34.3470260821319,36.6300165365218,0 34.34704740830787,36.63001043578792,0 34.34706892400702,36.62999929507778,0 34.3470901323688,36.62999323441409,0 34.34711128732667,36.62998718876747,0 34.34712924318955,36.62997378609044,0 34.3471492966602,36.62996431985197,0 34.34716839542148,36.62997637001794,0 34.34716699031063,36.62996501182012,0 34.34719534270966,36.62994381272891,0 34.34731489521332,36.62985091927653,0 34.34743896081525,36.62978173112121,0 34.3474542981544,36.62977640898816,0 34.34764864592793,36.62974645077181,0 34.34794160670718,36.62977289119795,0 34.34815867409006,36.62980894988242,0 34.34817326642778,36.62980957317529,0 34.3481940918531,36.62981150815467,0 34.34839016820333,36.62983226517724,0 34.34848732279615,36.62980344888055,0 34.34849659525022,36.62979453876054,0 34.34852433559846,36.62976788045174,0 34.3485335574603,36.62975901865778,0 34.34860687480671,36.62968856016691,0 34.3486444054808,36.6296445447047,0 34.34864838361368,36.6296542581543,0 34.34866318003992,36.62968276058939,0 34.34867274056995,36.62969115296085,0 34.34869425264768,36.62971003803636,0 34.34872905873117,36.62974947446612,0 34.34874101937407,36.62975997517263,0 34.34875780872831,36.62977466069876,0 34.34879763975536,36.62981831214459,0 34.34880115904362,36.62984172329701,0 34.34883131633555,36.6298883180901,0 34.34883852113469,36.62989464395628,0 34.34886373641655,36.62992798603334,0 34.3488552432704,36.62999950294282,0 34.34884795274573,36.63001584061726,0 34.34883821127443,36.63003010386767,0 34.34874429777375,36.63013302660674,0 34.34873217951585,36.6301530006458,0 34.34872077484216,36.63016561665577,0 34.34864555693971,36.63025642915662,0 34.34856898160766,36.63030271486101,0 34.34855832796398,36.63031365178805,0 34.34848629967677,36.63037041846185,0 34.34847629326436,36.63037788798372,0 34.34846916837034,36.63038320649555,0 34.34845654151916,36.6303895892632,0 34.3484070983027,36.63039894595608,0 34.34839178227873,36.630410306877,0 34.34836756490313,36.63042826969505,0 34.34832735458846,36.6304628254302,0 34.34828824239958,36.6304964370273,0 34.34828265978783,36.63050994132634,0 34.34827320342401,36.63052010868815,0 34.34826142742673,36.63053201701938,0 34.34821749556046,36.63057582817812,0 34.3482068410543,36.63058537294558,0 34.34818112704885,36.63065578986934,0 34.34818177216972,36.63066817845554,0 34.34817802833567,36.63068070591549,0 34.3481762505832,36.63069500603789,0 34.34817043274999,36.63074179275525,0 34.34816709019319,36.63075091507202,0 34.34817017072106,36.63076166229833,0 34.34816826882467,36.6307769865288,0 34.34817677587994,36.63078387797946,0 34.34819171713666,36.63079040106676,0 34.34823862985541,36.63082764980764,0 34.34824563733874,36.63083406984962,0 34.34826360785921,36.63084191474017,0 34.34836583796526,36.63090676397654,0 34.34845209073348,36.63095117681332,0 34.34847011539304,36.63095904628897,0 34.3484911456522,36.6309682270232,0 34.34850917142163,36.63097609557921,0 34.34858242449588,36.63101145834824,0 34.34859560028655,36.63102059642276,0 34.34860878514793,36.63102974160157,0 34.34861897119656,36.63103757994941,0 34.34863700763541,36.63104548170416,0 34.34868257625426,36.63107576406678,0 34.34869221187022,36.63109012240387,0 34.34870243935186,36.63109802785478,0 34.34872291697473,36.63111385561745,0 34.34876843861787,36.63116786609604,0 34.34877879894185,36.63117575922337,0 34.34879044848694,36.63118757628734,0 34.34880597747006,36.63121119926925,0 34.34883446977194,36.63125094411593,0 34.34884313087684,36.63126160020477,0 34.34885306040447,36.63127633364541,0 34.34892318452888,36.63138037709174,0 34.3489338004026,36.63138836913109,0 34.34895374041556,36.63140022115491,0 34.34901894062484,36.6314524759997,0 34.34903272117814,36.63146179549732,0 34.34904339824987,36.63146983368872,0 34.34907274932186,36.63148559063936,0 34.34914368599282,36.6315227732958,0 34.349152743903,36.6315275211214,0 34.34916817931258,36.63153428808062,0 34.34917743989838,36.6315383488033,0 34.34919287644571,36.63154511664745,0 34.34921139985889,36.63155323806279,0 34.34929623929849,36.63159391516594,0 34.34931168376981,36.63160068740997,0 34.34932712936155,36.63160745963928,0 34.34934566519291,36.63161558629908,0 34.34945075684239,36.63166138349189,0 34.34946937001639,36.63166900736557,0 34.34950008643818,36.63169913236389,0 34.34950728166414,36.63171605115591,0 34.34951666233508,36.63173039338843,0 34.34953202968623,36.63177889817086,0 34.3495435249334,36.63180128003262,0 34.34958257281002,36.631852825236,0 34.34960843132522,36.63186786382586,0 34.34973362063098,36.63192226526601,0 34.34974300906293,36.63192634431857,0 34.34976491431639,36.63193586361904,0 34.34978994793119,36.63194674231054,0 34.34987443164243,36.63198345565592,0 34.3498869473306,36.63198889410228,0 34.34989633354294,36.6319929731677,0 34.34992136269158,36.63200385007961,0 34.34996631721508,36.63201578790837,0 34.3501090367004,36.63207401442926,0 34.35013093324027,36.63208347789437,0 34.3501530124914,36.63209271221756,0 34.35018138946764,36.63210457924066,0 34.35020975296063,36.63211644190441,0 34.35035137343526,36.63217567085142,0 34.35036394641796,36.63218092928651,0 34.35038908450115,36.63219144263773,0 34.35040793047585,36.63219932503043,0 34.35044246790812,36.63221376947121,0 34.35046757334545,36.6322242687587,0 34.35054927656979,36.63226440292501,0 34.35057274325255,36.63228381693206,0 34.35059535038168,36.63230471391214,0 34.35060942917099,36.63232033996363,0 34.35062377139059,36.63233555754977,0 34.3506802641914,36.63240279028091,0 34.35109560713922,36.63269318378033,0 34.35113023220629,36.63268714323277,0 34.35114385965272,36.63267646159168,0 34.35116542620145,36.6326582372384,0 34.35120965630269,36.63263787531152,0 34.35143111481921,36.63253592587874,0 34.35144851491878,36.63252611147529,0 34.35157058229321,36.63245725978118,0 34.35159234210544,36.6324454369901,0 34.35162424486552,36.63242551572556,0 34.35173297669459,36.63234028883381,0 34.35174176583289,36.63232790766104,0 34.351774112724,36.632311463913,0 34.35180224419989,36.63229716295412,0 34.35182432544888,36.63229388933228,0 34.35187835681159,36.63230419433546,0 34.3518935035019,36.6323070833492,0 34.35191757044605,36.63230912955898,0 34.3519349837224,36.63230845888926,0 34.352002680198,36.63233309148854,0 34.35201443743561,36.63233439704648,0 34.35203074658558,36.63234143033898,0 34.3521142110768,36.63237366636923,0 34.35213376789608,36.63238210087748,0 34.35214354575629,36.63238631858714,0 34.35215466164239,36.63239487502916,0 34.35218862652388,36.63241325497884,0 34.35222864676042,36.632447966371,0 34.35223666124666,36.63245491717941,0 34.35225461867864,36.63246580718842,0 34.35227869050781,36.63248668271211,0 34.35230610502118,36.63250889440174,0 34.35233637829469,36.6325398724796,0 34.35234717317663,36.63255583925701,0 34.35235938793644,36.6325762853011,0 34.35237354228675,36.63259365293106,0 34.3523905479037,36.63261999788548,0 34.35239847208305,36.63263527730045,0 34.35239062145547,36.63263194690278,0 
						</coordinates>
					</LinearRing>
				</outerBoundaryIs>
			</Polygon>
		</Placemark>
	</Folder>
	<Folder>
		<name>KESIN_KORUMA_B_LGESI</name>
		<visibility>0</visibility>
		<LookAt>
			<longitude>34.35075135309948</longitude>
			<latitude>36.63101658593543</latitude>
			<altitude>0</altitude>
			<heading>0</heading>
			<tilt>45</tilt>
			<range>547.6098925984729</range>
		</LookAt>
		<Placemark id="#1">
			<visibility>0</visibility>
			<LookAt>
				<longitude>34.35075135309948</longitude>
				<latitude>36.63101658593543</latitude>
				<altitude>0</altitude>
				<heading>0</heading>
				<tilt>45</tilt>
				<range>547.6098925984729</range>
			</LookAt>
			<styleUrl>#KESIN_KORUMA_B_LGESI1</styleUrl>
			<Polygon>
				<outerBoundaryIs>
					<LinearRing>
						<coordinates>
							34.3523905479037,36.63261999788548,0 34.35237354228675,36.63259365293106,0 34.35235938793644,36.6325762853011,0 34.35234717317663,36.63255583925701,0 34.35233637829469,36.6325398724796,0 34.35230610502118,36.63250889440174,0 34.35227869050781,36.63248668271211,0 34.35225461867864,36.63246580718842,0 34.35223666124666,36.63245491717941,0 34.35222864676042,36.632447966371,0 34.35218862652388,36.63241325497884,0 34.35215466164239,36.63239487502916,0 34.35214354575629,36.63238631858714,0 34.35213376789608,36.63238210087748,0 34.3521142110768,36.63237366636923,0 34.35203074658558,36.63234143033898,0 34.35201443743561,36.63233439704648,0 34.352002680198,36.63233309148854,0 34.3519349837224,36.63230845888926,0 34.35191757044605,36.63230912955898,0 34.3518935035019,36.6323070833492,0 34.35187835681159,36.63230419433546,0 34.35182432544888,36.63229388933228,0 34.35180224419989,36.63229716295412,0 34.351774112724,36.632311463913,0 34.35174176583289,36.63232790766104,0 34.35173297669459,36.63234028883381,0 34.35162424486552,36.63242551572556,0 34.35159234210544,36.6324454369901,0 34.35157058229321,36.63245725978118,0 34.35144851491878,36.63252611147529,0 34.35143111481921,36.63253592587874,0 34.35120965630269,36.63263787531152,0 34.35116542620145,36.6326582372384,0 34.35114385965272,36.63267646159168,0 34.35113023220629,36.63268714323277,0 34.35109560713922,36.63269318378033,0 34.3506802641914,36.63240279028091,0 34.35062377139059,36.63233555754977,0 34.35060942917099,36.63232033996363,0 34.35059535038168,36.63230471391214,0 34.35057274325255,36.63228381693206,0 34.35054927656979,36.63226440292501,0 34.35046757334545,36.6322242687587,0 34.35044246790812,36.63221376947121,0 34.35040793047585,36.63219932503043,0 34.35038908450115,36.63219144263773,0 34.35036394641796,36.63218092928651,0 34.35035137343526,36.63217567085142,0 34.35020975296063,36.63211644190441,0 34.35018138946764,36.63210457924066,0 34.3501530124914,36.63209271221756,0 34.35013093324027,36.63208347789437,0 34.3501090367004,36.63207401442926,0 34.34996631721508,36.63201578790837,0 34.34992136269158,36.63200385007961,0 34.34989633354294,36.6319929731677,0 34.3498869473306,36.63198889410228,0 34.34987443164243,36.63198345565592,0 34.34978994793119,36.63194674231054,0 34.34976491431639,36.63193586361904,0 34.34974300906293,36.63192634431857,0 34.34973362063098,36.63192226526601,0 34.34960843132522,36.63186786382586,0 34.34958257281002,36.631852825236,0 34.3495435249334,36.63180128003262,0 34.34953202968623,36.63177889817086,0 34.34951666233508,36.63173039338843,0 34.34950728166414,36.63171605115591,0 34.34950008643818,36.63169913236389,0 34.34946937001639,36.63166900736557,0 34.34945075684239,36.63166138349189,0 34.34934566519291,36.63161558629908,0 34.34932712936155,36.63160745963928,0 34.34931168376981,36.63160068740997,0 34.34929623929849,36.63159391516594,0 34.34921139985889,36.63155323806279,0 34.34919287644571,36.63154511664745,0 34.34917743989838,36.6315383488033,0 34.34916817931258,36.63153428808062,0 34.349152743903,36.6315275211214,0 34.34914368599282,36.6315227732958,0 34.34907274932186,36.63148559063936,0 34.34904339824987,36.63146983368872,0 34.34903272117814,36.63146179549732,0 34.34901894062484,36.6314524759997,0 34.34895374041556,36.63140022115491,0 34.3489338004026,36.63138836913109,0 34.34892318452888,36.63138037709174,0 34.34885306040447,36.63127633364541,0 34.34884313087684,36.63126160020477,0 34.34883446977194,36.63125094411593,0 34.34880597747006,36.63121119926925,0 34.34879044848694,36.63118757628734,0 34.34877879894185,36.63117575922337,0 34.34876843861787,36.63116786609604,0 34.34872291697473,36.63111385561745,0 34.34870243935186,36.63109802785478,0 34.34869221187022,36.63109012240387,0 34.34868257625426,36.63107576406678,0 34.34863700763541,36.63104548170416,0 34.34861897119656,36.63103757994941,0 34.34860878514793,36.63102974160157,0 34.34859560028655,36.63102059642276,0 34.34858242449588,36.63101145834824,0 34.34850917142163,36.63097609557921,0 34.3484911456522,36.6309682270232,0 34.34847011539304,36.63095904628897,0 34.34845209073348,36.63095117681332,0 34.34836583796526,36.63090676397654,0 34.34826360785921,36.63084191474017,0 34.34824563733874,36.63083406984962,0 34.34823862985541,36.63082764980764,0 34.34819171713666,36.63079040106676,0 34.34817677587994,36.63078387797946,0 34.34816826882467,36.6307769865288,0 34.34817017072106,36.63076166229833,0 34.34816709019319,36.63075091507202,0 34.34817043274999,36.63074179275525,0 34.3481762505832,36.63069500603789,0 34.34817802833567,36.63068070591549,0 34.34818177216972,36.63066817845554,0 34.34818112704885,36.63065578986934,0 34.3482068410543,36.63058537294558,0 34.34821749556046,36.63057582817812,0 34.34826142742673,36.63053201701938,0 34.34827320342401,36.63052010868815,0 34.34828265978783,36.63050994132634,0 34.34828824239958,36.6304964370273,0 34.34832735458846,36.6304628254302,0 34.34836756490313,36.63042826969505,0 34.34839178227873,36.630410306877,0 34.3484070983027,36.63039894595608,0 34.34845654151916,36.6303895892632,0 34.34846916837034,36.63038320649555,0 34.34847629326436,36.63037788798372,0 34.34848629967677,36.63037041846185,0 34.34855832796398,36.63031365178805,0 34.34856898160766,36.63030271486101,0 34.34864555693971,36.63025642915662,0 34.34872077484216,36.63016561665577,0 34.34873217951585,36.6301530006458,0 34.34874429777375,36.63013302660674,0 34.34883821127443,36.63003010386767,0 34.34884795274573,36.63001584061726,0 34.3488552432704,36.62999950294282,0 34.34886373641655,36.62992798603334,0 34.34883852113469,36.62989464395628,0 34.34883131633555,36.6298883180901,0 34.34880115904362,36.62984172329701,0 34.34879763975536,36.62981831214459,0 34.34875780872831,36.62977466069876,0 34.34874101937407,36.62975997517263,0 34.34872905873117,36.62974947446612,0 34.34869425264768,36.62971003803636,0 34.34867274056995,36.62969115296085,0 34.34866318003992,36.62968276058939,0 34.34864838361368,36.6296542581543,0 34.3486444054808,36.6296445447047,0 34.34868163482803,36.62960088225346,0 34.34869621060073,36.62956322141482,0 34.34871746506749,36.62953499475569,0 34.3487341775545,36.6295111455051,0 34.34874638753767,36.62949162906605,0 34.34875529251951,36.62948312676143,0 34.34877789560597,36.62946185182248,0 34.3488610068192,36.62939915575942,0 34.34889576423654,36.62938968583711,0 34.34892599917997,36.62938442820936,0 34.34901601321618,36.62935346221318,0 34.34907368095872,36.62934516189053,0 34.34910351151842,36.62933998809051,0 34.34916556133452,36.6293427670963,0 34.34918793328172,36.62935242629973,0 34.34938512445755,36.62941960701661,0 34.3494074592856,36.62942925037954,0 34.34941523539066,36.62943262867904,0 34.34945193840782,36.6294485725901,0 34.34947938569279,36.62946071974339,0 34.34949585608603,36.62946800836979,0 34.34968809433943,36.62955308297476,0 34.34974854567012,36.62957983537407,0 34.34979831293899,36.62960627628672,0 34.34981599960142,36.62961567308447,0 34.34983949524384,36.62963206206581,0 34.34986150544479,36.62964180273063,0 34.34987952455449,36.62965577313814,0 34.34990306545024,36.62967219132879,0 34.34992509709584,36.62968194255136,0 34.35013386840459,36.62979231557071,0 34.35018950446021,36.62981659934513,0 34.35022288700426,36.62983116958677,0 34.35023957773776,36.6298384556112,0 34.35028010364195,36.62986223029919,0 34.35030395468799,36.62987873139513,0 34.35032782495001,36.62989524398212,0 34.35035567402925,36.62990739989149,0 34.35068142210014,36.63009850189269,0 34.35074463093459,36.63013222735435,0 34.35079848160867,36.63016801509311,0 34.35083763235041,36.6301851048965,0 34.35085800820582,36.63020630016035,0 34.35088220539211,36.63022301977431,0 34.35090642067709,36.63023975089176,0 34.35117381916775,36.63040592936169,0 34.35122284666021,36.63045838985737,0 34.35126628243739,36.63048967306916,0 34.35129299792808,36.63051352655894,0 34.35131769350084,36.63053035035799,0 34.35151077756574,36.63063228741966,0 34.35152972574172,36.63064686966272,0 34.35155780389037,36.63065931282773,0 34.35159363445814,36.630681382359,0 34.35161825122724,36.63069848811893,0 34.3516485127878,36.6307180996514,0 34.3516675458643,36.63073273947754,0 34.3517788765287,36.63079450900554,0 34.35180583197986,36.63081890028975,0 34.35182838499072,36.6308288975338,0 34.35185316922042,36.63084611217397,0 34.35187797271462,36.63086334100716,0 34.3519027976931,36.63088058310714,0 34.35201496464828,36.63097388001438,0 34.35204566265272,36.6309936324616,0 34.35207297477148,36.63101827283307,0 34.35208095137763,36.63102812009134,0 34.3521037304903,36.63103806335542,0 34.35222025619237,36.63112722518641,0 34.35223167056647,36.63113220823746,0 34.35228207399212,36.63116699008755,0 34.35229353006342,36.63117192760623,0 34.35231643999057,36.63118180356647,0 34.35248995529929,36.631275592094,0 34.35253257055647,36.63130029920141,0 34.35258094213986,36.63132749183727,0 34.35260066902229,36.63134234258997,0 34.35262360717074,36.63135222898228,0 34.35264080937686,36.63135964311373,0 34.35278358146683,36.63143388306738,0 34.35280652303405,36.63144377028608,0 34.35284354702672,36.63146608538475,0 34.35287485541599,36.63148594061061,0 34.35288633073054,36.63149088686327,0 34.35298478500872,36.63154924137904,0 34.35302899388394,36.63157785972695,0 34.35306614906577,36.63160025345904,0 34.35318650410476,36.63166489444075,0 34.35320649106119,36.63167990162378,0 34.35322649162752,36.63169491946146,0 34.35333561600577,36.631771468314,0 34.35332881240444,36.63178600490768,0 34.35332277153039,36.63179870278424,0 34.35331334849425,36.6318159245567,0 34.35330449260241,36.63182964918077,0 34.35330285540951,36.63183927577776,0 34.35329843673441,36.63184986476669,0 34.35328391916387,36.63186063695764,0 34.35323309253111,36.63189913812292,0 34.35322098960156,36.63191207335337,0 34.35321127696561,36.63192245395869,0 34.3532047876157,36.63192939014212,0 34.3531945065028,36.63193667125103,0 34.35318472353645,36.63194712203467,0 34.35317655056777,36.63195585242813,0 34.35316127225597,36.63196845158375,0 34.35314923352615,36.63197757910093,0 34.35313881345377,36.63198496991063,0 34.35312671182535,36.6319941449951,0 34.35311457488242,36.6320033466102,0 34.35310124752189,36.63201754911005,0 34.3530945657275,36.63202466948741,0 34.35308452000163,36.63203537554406,0 34.35307108065022,36.63204969554926,0 34.35305928217105,36.63206227048588,0 34.35305252132337,36.63206947375524,0 34.35303811396982,36.63208482745382,0 34.35302535621093,36.63209842337015,0 34.35301682503886,36.63210751373968,0 34.35300827412308,36.63211662595823,0 34.35299970346354,36.63212576002586,0 34.35299283177392,36.63213308258953,0 34.35298594800811,36.63214041790479,0 34.3529773246514,36.63214960753394,0 34.3529669496119,36.63216066332775,0 34.35296001757305,36.63216805145122,0 34.35294959314272,36.63217916006591,0 34.35293914018298,36.63219029963973,0 34.35293040595263,36.63219960676139,0 34.3529216519784,36.63220893573208,0 34.35291287714251,36.63221828656447,0 34.35290182911771,36.63222621250606,0 34.35289300920505,36.63223560709977,0 34.35288368082314,36.63224168886479,0 34.35287304435992,36.63225301253085,0 34.35286415850868,36.63226247274758,0 34.35285298370903,36.63227050194408,0 34.35284226263397,36.63228191036681,0 34.35283102937499,36.63228998527816,0 34.35282204675726,36.63229953849873,0 34.35281256502395,36.63230573823637,0 34.35280125564034,36.63231387167719,0 34.35279354297245,36.63231817621919,0 34.3527844766721,36.63232780337308,0 34.35277309667429,36.63233599077564,0 34.35276398421048,36.63234566350515,0 34.35275667732338,36.6323534190005,0 34.35274105925901,36.63236999833675,0 34.35272546971457,36.6323865467111,0 34.3527157313182,36.63239303048615,0 34.35270639122672,36.63240304909973,0 34.35269394352954,36.63240087562053,0 34.35256347433862,36.63252543364352,0 34.35255447798964,36.6325379145426,0 34.35254382258244,36.6325507819097,0 34.35254017505564,36.63256027633848,0 34.35252946839896,36.63257321817304,0 34.35251657310104,36.63258880513651,0 34.35250517123342,36.63259747212573,0 34.35249590304257,36.632603547771,0 34.35247948594728,36.63261311598962,0 34.35246135514758,36.63262397415568,0 34.35245146910797,36.63263148048605,0 34.35243929129526,36.63263585912509,0 34.35242207673431,36.63264112301712,0 34.35240643038063,36.63263933092718,0 34.35239847208305,36.63263527730045,0 34.3523905479037,36.63261999788548,0 
						</coordinates>
					</LinearRing>
				</outerBoundaryIs>
			</Polygon>
		</Placemark>
	</Folder>
</Document>
</kml>
