<?xml version="1.0" encoding="UTF-8"?>
<kml xmlns="http://www.opengis.net/kml/2.2" xmlns:gx="http://www.google.com/kml/ext/2.2" xmlns:kml="http://www.opengis.net/kml/2.2" xmlns:atom="http://www.w3.org/2005/Atom">
<Document id="Harbiye_kaynak" xsi:schemaLocation="http://www.opengis.net/kml/2.2 http://schemas.opengis.net/kml/2.2.0/ogckml22.xsd http://www.google.com/kml/ext/2.2 http://code.google.com/apis/kml/schema/kml22gx.xsd">
	<name>Harbiye_kaynak</name>
	<visibility>0</visibility>
	<Snippet maxLines="0"></Snippet>
	<Style id="PolyStyle0000000">
		<LabelStyle>
			<color>00000000</color>
			<scale>0</scale>
		</LabelStyle>
		<LineStyle>
			<color>7f6e6e6e</color>
			<width>0.4</width>
		</LineStyle>
		<PolyStyle>
			<color>7f0000ff</color>
		</PolyStyle>
	</Style>
	<Style id="PolyStyle01030">
		<LabelStyle>
			<color>00000000</color>
			<scale>0</scale>
		</LabelStyle>
		<LineStyle>
			<color>7f6e6e6e</color>
			<width>0.4</width>
		</LineStyle>
		<PolyStyle>
			<color>7f0055ff</color>
		</PolyStyle>
	</Style>
	<Style id="PolyStyle0230">
		<LabelStyle>
			<color>00000000</color>
			<scale>0</scale>
		</LabelStyle>
		<LineStyle>
			<color>7f6e6e6e</color>
			<width>0.4</width>
		</LineStyle>
		<PolyStyle>
			<color>7f7fd3ff</color>
		</PolyStyle>
	</Style>
	<Folder id="FeatureLayer0">
		<name>Harbiye_kaynak</name>
		<visibility>0</visibility>
		<Snippet maxLines="0"></Snippet>
		<Placemark id="ID_00000">
			<name>Mutlak Koruma Alanı</name>
			<visibility>0</visibility>
			<Snippet maxLines="0"></Snippet>
			<description><![CDATA[<html xmlns:fo="http://www.w3.org/1999/XSL/Format" xmlns:msxsl="urn:schemas-microsoft-com:xslt">

<head>

<META http-equiv="Content-Type" content="text/html">

<meta http-equiv="content-type" content="text/html; charset=UTF-8">

</head>

<body style="margin:0px 0px 0px 0px;overflow:auto;background:#FFFFFF;">

<table style="font-family:Arial,Verdana,Times;font-size:12px;text-align:left;width:100%;border-collapse:collapse;padding:3px 3px 3px 3px">

<tr style="text-align:center;font-weight:bold;background:#9CBCE2">

<td>Mutlak Koruma Alanı</td>

</tr>

<tr>

<td>

<table style="font-family:Arial,Verdana,Times;font-size:12px;text-align:left;width:100%;border-spacing:0px; padding:3px 3px 3px 3px">

<tr>

<td>SHAPE</td>

<td>Polygon</td>

</tr>

<tr bgcolor="#D4E4F3">

<td>isim</td>

<td>Mutlak Koruma Alanı</td>

</tr>

<tr>

<td>SHAPE_Length</td>

<td>773,16644</td>

</tr>

<tr bgcolor="#D4E4F3">

<td>SHAPE_Area</td>

<td>15696,5</td>

</tr>

</table>

</td>

</tr>

</table>

</body>

</html>]]></description>
			<styleUrl>#PolyStyle0000000</styleUrl>
			<MultiGeometry>
				<Polygon>
					<outerBoundaryIs>
						<LinearRing>
							<coordinates>
								36.14498730566114,36.13047410144665,0 36.14407810739733,36.12889329021993,0 36.14349179274008,36.12851880817471,0 36.14287447701449,36.12777408115993,0 36.14362629801982,36.12787313640916,0 36.14479533663189,36.12902756191503,0 36.14512441423261,36.12975639206041,0 36.14528862880781,36.13012981133301,0 36.14515804566999,36.13036101506015,0 36.14498730566114,36.13047410144665,0 
							</coordinates>
						</LinearRing>
					</outerBoundaryIs>
				</Polygon>
			</MultiGeometry>
		</Placemark>
		<Placemark id="ID_00001">
			<name>1. Derece Koruma Alanı</name>
			<visibility>0</visibility>
			<Snippet maxLines="0"></Snippet>
			<description><![CDATA[<html xmlns:fo="http://www.w3.org/1999/XSL/Format" xmlns:msxsl="urn:schemas-microsoft-com:xslt">

<head>

<META http-equiv="Content-Type" content="text/html">

<meta http-equiv="content-type" content="text/html; charset=UTF-8">

</head>

<body style="margin:0px 0px 0px 0px;overflow:auto;background:#FFFFFF;">

<table style="font-family:Arial,Verdana,Times;font-size:12px;text-align:left;width:100%;border-collapse:collapse;padding:3px 3px 3px 3px">

<tr style="text-align:center;font-weight:bold;background:#9CBCE2">

<td>1. Derece Koruma Alanı</td>

</tr>

<tr>

<td>

<table style="font-family:Arial,Verdana,Times;font-size:12px;text-align:left;width:100%;border-spacing:0px; padding:3px 3px 3px 3px">

<tr>

<td>SHAPE</td>

<td>Polygon</td>

</tr>

<tr bgcolor="#D4E4F3">

<td>isim</td>

<td>1. Derece Koruma Alanı</td>

</tr>

<tr>

<td>SHAPE_Length</td>

<td>7983,677297</td>

</tr>

<tr bgcolor="#D4E4F3">

<td>SHAPE_Area</td>

<td>3504770,938331</td>

</tr>

</table>

</td>

</tr>

</table>

</body>

</html>]]></description>
			<styleUrl>#PolyStyle01030</styleUrl>
			<MultiGeometry>
				<Polygon>
					<outerBoundaryIs>
						<LinearRing>
							<coordinates>
								36.14287447701449,36.12777408115993,0 36.14165042927815,36.12694814689934,0 36.13569996163101,36.12084466039673,0 36.13236857800604,36.11951303629732,0 36.13307910921115,36.11815897429242,0 36.1363696944552,36.11656859690206,0 36.13844672743851,36.11602214415833,0 36.14184721213661,36.11544765072746,0 36.14456325724372,36.11551247145383,0 36.14690580791086,36.11574716567388,0 36.1482142054954,36.11613601962635,0 36.15039058992491,36.11690320162951,0 36.15197974460602,36.11765637336593,0 36.15392092183546,36.11883518455637,0 36.15657632333127,36.12126292812586,0 36.15814686923578,36.12335090234758,0 36.15953270412124,36.1256729244882,0 36.16025019518992,36.1285990475333,0 36.16010072612254,36.1327445400845,0 36.15939960017013,36.13425398383284,0 36.15747374099179,36.13711735005209,0 36.15472359609871,36.14000877614028,0 36.14498730566114,36.13047410144665,0 36.14515804566999,36.13036101506015,0 36.14528862880781,36.13012981133301,0 36.14512441423261,36.12975639206041,0 36.14479533663189,36.12902756191503,0 36.14362629801982,36.12787313640916,0 36.14287447701449,36.12777408115993,0 
							</coordinates>
						</LinearRing>
					</outerBoundaryIs>
				</Polygon>
			</MultiGeometry>
		</Placemark>
		<Placemark id="ID_00002">
			<name>2. Derece Koruma Alanı</name>
			<visibility>0</visibility>
			<Snippet maxLines="0"></Snippet>
			<description><![CDATA[<html xmlns:fo="http://www.w3.org/1999/XSL/Format" xmlns:msxsl="urn:schemas-microsoft-com:xslt">

<head>

<META http-equiv="Content-Type" content="text/html">

<meta http-equiv="content-type" content="text/html; charset=UTF-8">

</head>

<body style="margin:0px 0px 0px 0px;overflow:auto;background:#FFFFFF;">

<table style="font-family:Arial,Verdana,Times;font-size:12px;text-align:left;width:100%;border-collapse:collapse;padding:3px 3px 3px 3px">

<tr style="text-align:center;font-weight:bold;background:#9CBCE2">

<td>2. Derece Koruma Alanı</td>

</tr>

<tr>

<td>

<table style="font-family:Arial,Verdana,Times;font-size:12px;text-align:left;width:100%;border-spacing:0px; padding:3px 3px 3px 3px">

<tr>

<td>SHAPE</td>

<td>Polygon</td>

</tr>

<tr bgcolor="#D4E4F3">

<td>isim</td>

<td>2. Derece Koruma Alanı</td>

</tr>

<tr>

<td>SHAPE_Length</td>

<td>37823,354264</td>

</tr>

<tr bgcolor="#D4E4F3">

<td>SHAPE_Area</td>

<td>27438274,056259</td>

</tr>

</table>

</td>

</tr>

</table>

</body>

</html>]]></description>
			<styleUrl>#PolyStyle0230</styleUrl>
			<MultiGeometry>
				<Polygon>
					<outerBoundaryIs>
						<LinearRing>
							<coordinates>
								36.13236857800604,36.11951303629732,0 36.12614590108874,36.11616584883991,0 36.11635054286457,36.11280063929082,0 36.10801857809538,36.10961903608101,0 36.10181801640228,36.1084258703819,0 36.09614782705791,36.10799636147638,0 36.09798039064304,36.10610937766648,0 36.10040045465105,36.10502347255974,0 36.10215528392288,36.10284840090824,0 36.10439759984299,36.09939747378065,0 36.10902004619453,36.09593246051872,0 36.11285126806708,36.09480882253388,0 36.11488716830063,36.0945717616972,0 36.11748875397225,36.09091462116338,0 36.11762382573816,36.089630248007,0 36.1250779665497,36.08823569199817,0 36.12176373814837,36.08486546901496,0 36.1200992273848,36.08217865910353,0 36.12136641827833,36.07884699040888,0 36.12180723110402,36.07642539903735,0 36.12210320675717,36.07314190567934,0 36.12349933192915,36.07110093314634,0 36.12331336225546,36.0689504160487,0 36.12207622588252,36.06663157401712,0 36.12211791242292,36.06548801603954,0 36.12112930641432,36.06360434675829,0 36.11984860141819,36.0600683405272,0 36.11910331690589,36.05876278639079,0 36.11781166968768,36.05794482704866,0 36.1150725528109,36.05816502454938,0 36.11329202222306,36.05626221780969,0 36.11430017772887,36.05278129709971,0 36.11454409280957,36.0509272633635,0 36.11258770406618,36.04902021201068,0 36.11123701877961,36.04741387759096,0 36.10857504325501,36.0431290934372,0 36.11123953863048,36.04011736873849,0 36.11221618936223,36.03749411748299,0 36.11594206942041,36.04158983624103,0 36.11613043303231,36.04366888914844,0 36.1178749084775,36.04414008231241,0 36.11909858006275,36.04681631616127,0 36.12298093479259,36.04905567573315,0 36.1246089445527,36.05031086389045,0 36.12519122693369,36.05125479724707,0 36.13083458790813,36.05110396019773,0 36.13123313225597,36.05225807101675,0 36.13254040781289,36.05264704893187,0 36.13899673161909,36.05680741323183,0 36.1390407365449,36.05802456572334,0 36.13827438694522,36.05972310812697,0 36.13562040902668,36.06488174670226,0 36.13875058637004,36.07089399767877,0 36.14248971005287,36.07470310936431,0 36.14359554798121,36.07823472212861,0 36.14597037476984,36.08079508227525,0 36.146983213939,36.08446751983516,0 36.15710010651887,36.08985869262442,0 36.15896500089784,36.09028447848218,0 36.16129272112314,36.09091197145104,0 36.1590728288724,36.09381612080749,0 36.16114865848327,36.09491454420267,0 36.16298284343061,36.09619796832008,0 36.16154974590053,36.09683166686105,0 36.16225511872136,36.10009133001881,0 36.16055276440952,36.10167243767471,0 36.16015241340148,36.10299826994624,0 36.15877134869456,36.10544539482797,0 36.15884695975624,36.10783170134447,0 36.15986427318432,36.11018073914107,0 36.16127916618955,36.11373145392499,0 36.1610374917985,36.11432185061276,0 36.16282548682272,36.11567572315603,0 36.16690790712407,36.11452054412263,0 36.16704401625982,36.11482182984331,0 36.16721071346024,36.11631609615221,0 36.16832532961759,36.11801162872591,0 36.17191035732266,36.120480899151,0 36.1736545761709,36.1251122913345,0 36.17610084478766,36.12451428889685,0 36.17960689855374,36.12304701794626,0 36.17932693987849,36.12470958448969,0 36.1803876993624,36.12586722419292,0 36.1816453064541,36.12768523363133,0 36.18162399524757,36.12828086203638,0 36.18336906233673,36.12879884599862,0 36.18528333653403,36.13075149697791,0 36.18524289242782,36.13188319295351,0 36.18441180018981,36.13251938752546,0 36.18585689250269,36.13320911795608,0 36.1866890657392,36.13459978184248,0 36.18610058415388,36.13667240232056,0 36.18419994888572,36.1363892466773,0 36.18195659024186,36.13746908957057,0 36.18067843103833,36.13827356569337,0 36.17922049611518,36.13794114590754,0 36.1778795473797,36.13844604776139,0 36.17670893497629,36.13829921127603,0 36.17270664961591,36.137191307713,0 36.16779122191868,36.13695585589763,0 36.16636608007529,36.137756697444,0 36.16462309166369,36.13717890122091,0 36.16402064970003,36.13758191428505,0 36.16171645712613,36.13830225282215,0 36.16023752805562,36.14059205851118,0 36.1582745762403,36.142035774696,0 36.15735866551224,36.14094099560553,0 36.15472359609871,36.14000877614028,0 36.15747374099179,36.13711735005209,0 36.15939960017013,36.13425398383284,0 36.16010072612254,36.1327445400845,0 36.16025019518992,36.1285990475333,0 36.15953270412124,36.1256729244882,0 36.15814686923578,36.12335090234758,0 36.15657632333127,36.12126292812586,0 36.15392092183546,36.11883518455637,0 36.15197974460602,36.11765637336593,0 36.15039058992491,36.11690320162951,0 36.1482142054954,36.11613601962635,0 36.14690580791086,36.11574716567388,0 36.14456325724372,36.11551247145383,0 36.14184721213661,36.11544765072746,0 36.13844672743851,36.11602214415833,0 36.1363696944552,36.11656859690206,0 36.13307910921115,36.11815897429242,0 36.13236857800604,36.11951303629732,0 
							</coordinates>
						</LinearRing>
					</outerBoundaryIs>
				</Polygon>
			</MultiGeometry>
		</Placemark>
	</Folder>
</Document>
</kml>
