<?xml version="1.0" encoding="UTF-8"?>
<kml xmlns="http://www.opengis.net/kml/2.2" xmlns:gx="http://www.google.com/kml/ext/2.2" xmlns:kml="http://www.opengis.net/kml/2.2" xmlns:atom="http://www.w3.org/2005/Atom">
<Document>
	<name>TESCİL_HAR.kml</name>
	<Style id="default003">
	</Style>
	<Placemark>
		<name>TESCİL_HAR</name>
		<visibility>0</visibility>
		<styleUrl>#default003</styleUrl>
		<Style>
			<LineStyle>
				<color>ff0000ff</color>
			</LineStyle>
			<PolyStyle>
				<color>ff0000ff</color>
			</PolyStyle>
		</Style>
		<LineString>
			<extrude>1</extrude>
			<tessellate>1</tessellate>
			<altitudeMode>relativeToGround</altitudeMode>
			<coordinates>
				32.8914507190935,36.1948298575932,9.999999999999998 32.8914594673969,36.1948285593542,9.999999999999998 32.8914680869836,36.1948269295053,9.999999999999998 32.8914763093303,36.1948242762556,9.999999999999998 32.8914834344473,36.1948187962372,9.999999999999998 32.8914875705765,36.194805615756,9.999999999999998 32.8914862008014,36.1947782637526,9.999999999999998 32.8914818363373,36.1947432929122,9.999999999999998 32.8914763570393,36.1947057472136,9.999999999999998 32.8914704318662,36.1946678739243,9.999999999999998 32.8914642454766,36.1946315644969,9.999999999999998 32.8914576984659,36.1945984143075,9.999999999999998 32.8914510368024,36.1945669119168,9.999999999999998 32.8914443815842,36.1945353409781,9.999999999999998 32.8914378609042,36.1945019106913,9.999999999999998 32.8914317489807,36.1944628107049,9.999999999999998 32.8914263968587,36.1944131894797,9.999999999999998 32.8914214595547,36.1943579578363,9.999999999999998 32.8914166754936,36.1943010497972,9.999999999999998 32.891411949539,36.1942445785492,9.999999999999998 32.89140724966,36.1941911317058,9.999999999999998 32.891402989736,36.1941474096726,9.999999999999998 
			</coordinates>
		</LineString>
	</Placemark>
</Document>
</kml>
